{
 "generated_at": "2026-06-18T09:14:20Z",
 "sources": [
  {
   "name": "CelesTrak",
   "url": "https://celestrak.org/NORAD/elements/",
   "license": "frei verfügbar; Attribution. Ursprünglich USSPACECOM/Space-Track."
  },
  {
   "name": "GCAT (J. McDowell, planet4589.org)",
   "url": "https://planet4589.org/space/gcat/",
   "license": "CC-BY 4.0"
  }
 ],
 "satellites": [
  {
   "norad": 25397,
   "name": "TECHSAT 1B (GO-32)",
   "intl": "1998-043D",
   "group": "resource",
   "gcat": {
    "class": "A",
    "category": "COM",
    "owner": "TECN",
    "state": "IL"
   },
   "omm": {
    "OBJECT_NAME": "TECHSAT 1B (GO-32)",
    "OBJECT_ID": "1998-043D",
    "EPOCH": "2026-06-17T20:05:22.231968",
    "MEAN_MOTION": 14.2442849,
    "ECCENTRICITY": 0.00011006,
    "INCLINATION": 99.0067,
    "RA_OF_ASC_NODE": 161.612,
    "ARG_OF_PERICENTER": 161.3661,
    "MEAN_ANOMALY": 198.7558,
    "EPHEMERIS_TYPE": 0,
    "CLASSIFICATION_TYPE": "U",
    "NORAD_CAT_ID": 25397,
    "ELEMENT_SET_NO": 999,
    "REV_AT_EPOCH": 45142,
    "BSTAR": 0.000035909169,
    "MEAN_MOTION_DOT": 3.6e-7,
    "MEAN_MOTION_DDOT": 0
   }
  },
  {
   "norad": 25994,
   "name": "TERRA",
   "intl": "1999-068A",
   "group": "resource",
   "gcat": {
    "class": "C",
    "category": "IMG",
    "owner": "GSFC",
    "state": "US"
   },
   "omm": {
    "OBJECT_NAME": "TERRA",
    "OBJECT_ID": "1999-068A",
    "EPOCH": "2026-06-17T21:58:53.940576",
    "MEAN_MOTION": 14.61103628,
    "ECCENTRICITY": 0.0001636,
    "INCLINATION": 97.9456,
    "RA_OF_ASC_NODE": 218.4333,
    "ARG_OF_PERICENTER": 186.9393,
    "MEAN_ANOMALY": 276.8108,
    "EPHEMERIS_TYPE": 0,
    "CLASSIFICATION_TYPE": "U",
    "NORAD_CAT_ID": 25994,
    "ELEMENT_SET_NO": 999,
    "REV_AT_EPOCH": 40971,
    "BSTAR": 0.000071963966,
    "MEAN_MOTION_DOT": 0.00000309,
    "MEAN_MOTION_DDOT": 0
   }
  },
  {
   "norad": 31698,
   "name": "TERRASAR-X",
   "intl": "2007-026A",
   "group": "resource",
   "gcat": {
    "class": null,
    "category": "IMG-R",
    "owner": "DLR2/EASF",
    "state": "D"
   },
   "omm": {
    "OBJECT_NAME": "TERRASAR-X",
    "OBJECT_ID": "2007-026A",
    "EPOCH": "2026-06-17T14:05:11.304960",
    "MEAN_MOTION": 15.19150392,
    "ECCENTRICITY": 0.00015603,
    "INCLINATION": 97.4452,
    "RA_OF_ASC_NODE": 176.2866,
    "ARG_OF_PERICENTER": 90.2646,
    "MEAN_ANOMALY": 269.8767,
    "EPHEMERIS_TYPE": 0,
    "CLASSIFICATION_TYPE": "U",
    "NORAD_CAT_ID": 31698,
    "ELEMENT_SET_NO": 999,
    "REV_AT_EPOCH": 5328,
    "BSTAR": 0.000016539198,
    "MEAN_MOTION_DOT": 0.0000028,
    "MEAN_MOTION_DDOT": 0
   }
  },
  {
   "norad": 33396,
   "name": "THEOS",
   "intl": "2008-049A",
   "group": "resource",
   "gcat": {
    "class": "C",
    "category": "IMG",
    "owner": "GISTDA",
    "state": "T"
   },
   "omm": {
    "OBJECT_NAME": "THEOS",
    "OBJECT_ID": "2008-049A",
    "EPOCH": "2026-06-17T22:55:32.981376",
    "MEAN_MOTION": 14.20132034,
    "ECCENTRICITY": 0.000124,
    "INCLINATION": 98.5569,
    "RA_OF_ASC_NODE": 226.2139,
    "ARG_OF_PERICENTER": 78.8342,
    "MEAN_ANOMALY": 281.2974,
    "EPHEMERIS_TYPE": 0,
    "CLASSIFICATION_TYPE": "U",
    "NORAD_CAT_ID": 33396,
    "ELEMENT_SET_NO": 999,
    "REV_AT_EPOCH": 91807,
    "BSTAR": -0.00011479911,
    "MEAN_MOTION_DOT": -0.00000287,
    "MEAN_MOTION_DDOT": 0
   }
  },
  {
   "norad": 55973,
   "name": "TIANMU-1 03",
   "intl": "2023-039A",
   "group": "weather",
   "gcat": {
    "class": "B",
    "category": "MET",
    "owner": "TIANMU",
    "state": "CN"
   },
   "omm": {
    "OBJECT_NAME": "TIANMU-1 03",
    "OBJECT_ID": "2023-039A",
    "EPOCH": "2026-06-17T22:56:01.644576",
    "MEAN_MOTION": 15.47303803,
    "ECCENTRICITY": 0.00041708,
    "INCLINATION": 97.5234,
    "RA_OF_ASC_NODE": 342.9542,
    "ARG_OF_PERICENTER": 96.8777,
    "MEAN_ANOMALY": 263.2947,
    "EPHEMERIS_TYPE": 0,
    "CLASSIFICATION_TYPE": "U",
    "NORAD_CAT_ID": 55973,
    "ELEMENT_SET_NO": 999,
    "REV_AT_EPOCH": 18095,
    "BSTAR": 0.00026183538,
    "MEAN_MOTION_DOT": 0.00013271,
    "MEAN_MOTION_DDOT": 0
   }
  },
  {
   "norad": 55974,
   "name": "TIANMU-1 04",
   "intl": "2023-039B",
   "group": "weather",
   "gcat": {
    "class": "B",
    "category": "MET",
    "owner": "TIANMU",
    "state": "CN"
   },
   "omm": {
    "OBJECT_NAME": "TIANMU-1 04",
    "OBJECT_ID": "2023-039B",
    "EPOCH": "2026-06-17T22:40:26.796576",
    "MEAN_MOTION": 15.47901944,
    "ECCENTRICITY": 0.00048385,
    "INCLINATION": 97.517,
    "RA_OF_ASC_NODE": 342.0968,
    "ARG_OF_PERICENTER": 93.9224,
    "MEAN_ANOMALY": 266.2579,
    "EPHEMERIS_TYPE": 0,
    "CLASSIFICATION_TYPE": "U",
    "NORAD_CAT_ID": 55974,
    "ELEMENT_SET_NO": 999,
    "REV_AT_EPOCH": 18096,
    "BSTAR": 0.00025661446,
    "MEAN_MOTION_DOT": 0.00013279,
    "MEAN_MOTION_DDOT": 0
   }
  },
  {
   "norad": 55975,
   "name": "TIANMU-1 05",
   "intl": "2023-039C",
   "group": "weather",
   "gcat": {
    "class": "B",
    "category": "MET",
    "owner": "TIANMU",
    "state": "CN"
   },
   "omm": {
    "OBJECT_NAME": "TIANMU-1 05",
    "OBJECT_ID": "2023-039C",
    "EPOCH": "2026-06-17T22:28:22.740384",
    "MEAN_MOTION": 15.47230025,
    "ECCENTRICITY": 0.00039943,
    "INCLINATION": 97.5217,
    "RA_OF_ASC_NODE": 342.5488,
    "ARG_OF_PERICENTER": 113.3901,
    "MEAN_ANOMALY": 246.7769,
    "EPHEMERIS_TYPE": 0,
    "CLASSIFICATION_TYPE": "U",
    "NORAD_CAT_ID": 55975,
    "ELEMENT_SET_NO": 999,
    "REV_AT_EPOCH": 18093,
    "BSTAR": 0.00024477533,
    "MEAN_MOTION_DOT": 0.00012367,
    "MEAN_MOTION_DDOT": 0
   }
  },
  {
   "norad": 55976,
   "name": "TIANMU-1 06",
   "intl": "2023-039D",
   "group": "weather",
   "gcat": {
    "class": "B",
    "category": "MET",
    "owner": "TIANMU",
    "state": "CN"
   },
   "omm": {
    "OBJECT_NAME": "TIANMU-1 06",
    "OBJECT_ID": "2023-039D",
    "EPOCH": "2026-06-17T22:45:22.757184",
    "MEAN_MOTION": 15.47805855,
    "ECCENTRICITY": 0.00043722,
    "INCLINATION": 97.5222,
    "RA_OF_ASC_NODE": 343.1978,
    "ARG_OF_PERICENTER": 108.9754,
    "MEAN_ANOMALY": 251.197,
    "EPHEMERIS_TYPE": 0,
    "CLASSIFICATION_TYPE": "U",
    "NORAD_CAT_ID": 55976,
    "ELEMENT_SET_NO": 999,
    "REV_AT_EPOCH": 18096,
    "BSTAR": 0.00025510475,
    "MEAN_MOTION_DOT": 0.00013155,
    "MEAN_MOTION_DDOT": 0
   }
  },
  {
   "norad": 57399,
   "name": "TIANMU-1 07",
   "intl": "2023-101A",
   "group": "weather",
   "gcat": {
    "class": "B",
    "category": "MET",
    "owner": "TIANMU",
    "state": "CN"
   },
   "omm": {
    "OBJECT_NAME": "TIANMU-1 07",
    "OBJECT_ID": "2023-101A",
    "EPOCH": "2026-06-17T22:48:40.049856",
    "MEAN_MOTION": 15.29815429,
    "ECCENTRICITY": 0.00041284,
    "INCLINATION": 97.2587,
    "RA_OF_ASC_NODE": 219.6014,
    "ARG_OF_PERICENTER": 119.7736,
    "MEAN_ANOMALY": 240.3916,
    "EPHEMERIS_TYPE": 0,
    "CLASSIFICATION_TYPE": "U",
    "NORAD_CAT_ID": 57399,
    "ELEMENT_SET_NO": 999,
    "REV_AT_EPOCH": 16176,
    "BSTAR": 0.00018201046,
    "MEAN_MOTION_DOT": 0.00005182,
    "MEAN_MOTION_DDOT": 0
   }
  },
  {
   "norad": 57400,
   "name": "TIANMU-1 08",
   "intl": "2023-101B",
   "group": "weather",
   "gcat": {
    "class": "B",
    "category": "MET",
    "owner": "TIANMU",
    "state": "CN"
   },
   "omm": {
    "OBJECT_NAME": "TIANMU-1 08",
    "OBJECT_ID": "2023-101B",
    "EPOCH": "2026-06-17T22:00:37.728576",
    "MEAN_MOTION": 15.2981977,
    "ECCENTRICITY": 0.00056012,
    "INCLINATION": 97.2576,
    "RA_OF_ASC_NODE": 219.3393,
    "ARG_OF_PERICENTER": 113.2174,
    "MEAN_ANOMALY": 246.9657,
    "EPHEMERIS_TYPE": 0,
    "CLASSIFICATION_TYPE": "U",
    "NORAD_CAT_ID": 57400,
    "ELEMENT_SET_NO": 999,
    "REV_AT_EPOCH": 16175,
    "BSTAR": 0.00017845896,
    "MEAN_MOTION_DOT": 0.00005081,
    "MEAN_MOTION_DDOT": 0
   }
  },
  {
   "norad": 57401,
   "name": "TIANMU-1 09",
   "intl": "2023-101C",
   "group": "weather",
   "gcat": {
    "class": "B",
    "category": "MET",
    "owner": "TIANMU",
    "state": "CN"
   },
   "omm": {
    "OBJECT_NAME": "TIANMU-1 09",
    "OBJECT_ID": "2023-101C",
    "EPOCH": "2026-06-17T21:36:43.490304",
    "MEAN_MOTION": 15.29850967,
    "ECCENTRICITY": 0.00046166,
    "INCLINATION": 97.2534,
    "RA_OF_ASC_NODE": 218.7384,
    "ARG_OF_PERICENTER": 124.9649,
    "MEAN_ANOMALY": 235.2026,
    "EPHEMERIS_TYPE": 0,
    "CLASSIFICATION_TYPE": "U",
    "NORAD_CAT_ID": 57401,
    "ELEMENT_SET_NO": 999,
    "REV_AT_EPOCH": 16175,
    "BSTAR": 0.00018427194,
    "MEAN_MOTION_DOT": 0.00005254,
    "MEAN_MOTION_DDOT": 0
   }
  },
  {
   "norad": 57402,
   "name": "TIANMU-1 10",
   "intl": "2023-101D",
   "group": "weather",
   "gcat": {
    "class": "B",
    "category": "MET",
    "owner": "TIANMU",
    "state": "CN"
   },
   "omm": {
    "OBJECT_NAME": "TIANMU-1 10",
    "OBJECT_ID": "2023-101D",
    "EPOCH": "2026-06-17T22:24:20.239776",
    "MEAN_MOTION": 15.29822903,
    "ECCENTRICITY": 0.0006189,
    "INCLINATION": 97.2613,
    "RA_OF_ASC_NODE": 219.8219,
    "ARG_OF_PERICENTER": 124.2528,
    "MEAN_ANOMALY": 235.93,
    "EPHEMERIS_TYPE": 0,
    "CLASSIFICATION_TYPE": "U",
    "NORAD_CAT_ID": 57402,
    "ELEMENT_SET_NO": 999,
    "REV_AT_EPOCH": 16175,
    "BSTAR": 0.00018680579,
    "MEAN_MOTION_DOT": 0.00005323,
    "MEAN_MOTION_DDOT": 0
   }
  },
  {
   "norad": 58645,
   "name": "TIANMU-1 11",
   "intl": "2023-205A",
   "group": "weather",
   "gcat": {
    "class": "B",
    "category": "MET",
    "owner": "TIANMU",
    "state": "CN"
   },
   "omm": {
    "OBJECT_NAME": "TIANMU-1 11",
    "OBJECT_ID": "2023-205A",
    "EPOCH": "2026-06-17T21:43:46.115904",
    "MEAN_MOTION": 15.27002177,
    "ECCENTRICITY": 0.00088728,
    "INCLINATION": 97.3442,
    "RA_OF_ASC_NODE": 190.451,
    "ARG_OF_PERICENTER": 14.7108,
    "MEAN_ANOMALY": 345.4387,
    "EPHEMERIS_TYPE": 0,
    "CLASSIFICATION_TYPE": "U",
    "NORAD_CAT_ID": 58645,
    "ELEMENT_SET_NO": 999,
    "REV_AT_EPOCH": 13763,
    "BSTAR": 0.00016940456,
    "MEAN_MOTION_DOT": 0.0000442,
    "MEAN_MOTION_DDOT": 0
   }
  }
 ]
}
